start=new Date('2021-11-18T00:00:00.000Z').valueOf();
sats=[{"NORAD_CAT_ID":"48480","TIME_SYSTEM":"UTC","DECAY_DATE":null,"FILE":"3217982","TLE_LINE2":"2 48480  53.0565  62.5952 0001161  69.1747 290.9366 15.06403804 29278","RCS_SIZE":"LARGE","OBJECT_NAME":"STARLINK-2690","RA_OF_ASC_NODE":"62.5952","BSTAR":"0.00017394000000","APOAPSIS":"548.006","INCLINATION":"53.0565","GP_ID":"189978403","CLASSIFICATION_TYPE":"U","OBJECT_TYPE":"PAYLOAD","REF_FRAME":"TEME","OBJECT_ID":"2021-040BE","PERIAPSIS":"546.398","MEAN_MOTION_DDOT":"0.0000000000000","EPHEMERIS_TYPE":"0","SEMIMAJOR_AXIS":"6925.337","LAUNCH_DATE":"2021-05-09","PERIOD":"95.592","SITE":"AFETR","COUNTRY_CODE":"US","MEAN_ANOMALY":"290.9366","CENTER_NAME":"EARTH","EPOCH":"2021-11-17T19:07:53.957856","MEAN_MOTION_DOT":"0.00002311","REV_AT_EPOCH":"2927","MEAN_ELEMENT_THEORY":"SGP4","ELEMENT_SET_NO":"999","TLE_LINE1":"1 48480U 21040BE  21321.79715229  .00002311  00000-0  17394-3 0  9996","ECCENTRICITY":"0.00011610","MEAN_MOTION":"15.06403804","ARG_OF_PERICENTER":"69.1747"},{"LAUNCH_DATE":"2021-05-09","SEMIMAJOR_AXIS":"6925.348","PERIOD":"95.592","SITE":"AFETR","COUNTRY_CODE":"US","REF_FRAME":"TEME","OBJECT_ID":"2021-040BF","PERIAPSIS":"546.312","MEAN_MOTION_DDOT":"0.0000000000000","EPHEMERIS_TYPE":"0","MEAN_ELEMENT_THEORY":"SGP4","TLE_LINE1":"1 48481U 21040BF  21321.67825967  .00001364  00000-0  11047-3 0  9991","ELEMENT_SET_NO":"999","ECCENTRICITY":"0.00013020","MEAN_MOTION":"15.06400115","ARG_OF_PERICENTER":"93.0597","MEAN_ANOMALY":"267.0541","CENTER_NAME":"EARTH","EPOCH":"2021-11-17T16:16:41.635488","MEAN_MOTION_DOT":"0.00001364","REV_AT_EPOCH":"2925","FILE":"3217982","TLE_LINE2":"2 48481  53.0577  63.1277 0001302  93.0597 267.0541 15.06400115 29255","RCS_SIZE":"LARGE","RA_OF_ASC_NODE":"63.1277","OBJECT_NAME":"STARLINK-2706","NORAD_CAT_ID":"48481","TIME_SYSTEM":"UTC","DECAY_DATE":null,"OBJECT_TYPE":"PAYLOAD","BSTAR":"0.00011047000000","APOAPSIS":"548.115","GP_ID":"189978278","INCLINATION":"53.0577","CLASSIFICATION_TYPE":"U"},{"CENTER_NAME":"EARTH","MEAN_ANOMALY":"280.2648","EPOCH":"2021-11-17T16:07:26.035104","MEAN_MOTION_DOT":"0.00000164","REV_AT_EPOCH":"2925","MEAN_ELEMENT_THEORY":"SGP4","ECCENTRICITY":"0.00012140","TLE_LINE1":"1 48482U 21040BG  21321.67182911  .00000164  00000-0  29908-4 0  9990","ELEMENT_SET_NO":"999","MEAN_MOTION":"15.06399541","ARG_OF_PERICENTER":"79.8478","REF_FRAME":"TEME","OBJECT_ID":"2021-040BG","MEAN_MOTION_DDOT":"0.0000000000000","PERIAPSIS":"546.374","EPHEMERIS_TYPE":"0","SITE":"AFETR","COUNTRY_CODE":"US","LAUNCH_DATE":"2021-05-09","SEMIMAJOR_AXIS":"6925.350","PERIOD":"95.592","APOAPSIS":"548.056","BSTAR":"0.00002990800000","INCLINATION":"53.0562","GP_ID":"189978684","CLASSIFICATION_TYPE":"U","OBJECT_TYPE":"PAYLOAD","TIME_SYSTEM":"UTC","NORAD_CAT_ID":"48482","DECAY_DATE":null,"FILE":"3217982","RCS_SIZE":"LARGE","TLE_LINE2":"2 48482  53.0562  63.1640 0001214  79.8478 280.2648 15.06399541 29251","RA_OF_ASC_NODE":"63.1640","OBJECT_NAME":"STARLINK-2525"},{"MEAN_MOTION_DOT":"0.00001694","REV_AT_EPOCH":"2924","EPOCH":"2021-11-17T14:26:35.405088","CENTER_NAME":"EARTH","MEAN_ANOMALY":"281.4124","ARG_OF_PERICENTER":"78.7008","MEAN_MOTION":"15.06401282","ECCENTRICITY":"0.00012710","ELEMENT_SET_NO":"999","TLE_LINE1":"1 48483U 21040BH  21321.60179867  .00001694  00000-0  13258-3 0  9999","MEAN_ELEMENT_THEORY":"SGP4","EPHEMERIS_TYPE":"0","MEAN_MOTION_DDOT":"0.0000000000000","PERIAPSIS":"546.329","OBJECT_ID":"2021-040BH","REF_FRAME":"TEME","SITE":"AFETR","COUNTRY_CODE":"US","LAUNCH_DATE":"2021-05-09","PERIOD":"95.592","SEMIMAJOR_AXIS":"6925.345","CLASSIFICATION_TYPE":"U","GP_ID":"189978157","INCLINATION":"53.0566","APOAPSIS":"548.090","BSTAR":"0.00013258000000","OBJECT_TYPE":"PAYLOAD","DECAY_DATE":null,"TIME_SYSTEM":"UTC","NORAD_CAT_ID":"48483","RA_OF_ASC_NODE":"63.4758","OBJECT_NAME":"STARLINK-2531","RCS_SIZE":"LARGE","TLE_LINE2":"2 48483  53.0566  63.4758 0001271  78.7008 281.4124 15.06401282 29246","FILE":"3217982"},{"OBJECT_TYPE":"PAYLOAD","INCLINATION":"53.0555","GP_ID":"189978062","CLASSIFICATION_TYPE":"U","APOAPSIS":"548.195","BSTAR":"0.00012897000000","RCS_SIZE":"LARGE","TLE_LINE2":"2 48484  53.0555  62.6802 0001430  75.3036 284.8112 15.06402977 29276","RA_OF_ASC_NODE":"62.6802","OBJECT_NAME":"STARLINK-2696","FILE":"3217982","DECAY_DATE":null,"TIME_SYSTEM":"UTC","NORAD_CAT_ID":"48484","MEAN_MOTION":"15.06402977","ARG_OF_PERICENTER":"75.3036","MEAN_ELEMENT_THEORY":"SGP4","ECCENTRICITY":"0.00014300","ELEMENT_SET_NO":"999","TLE_LINE1":"1 48484U 21040BJ  21321.77778285  .00001640  00000-0  12897-3 0  9996","EPOCH":"2021-11-17T18:40:00.438240","REV_AT_EPOCH":"2927","MEAN_MOTION_DOT":"0.00001640","CENTER_NAME":"EARTH","MEAN_ANOMALY":"284.8112","SITE":"AFETR","COUNTRY_CODE":"US","SEMIMAJOR_AXIS":"6925.339","LAUNCH_DATE":"2021-05-09","PERIOD":"95.592","MEAN_MOTION_DDOT":"0.0000000000000","PERIAPSIS":"546.214","EPHEMERIS_TYPE":"0","REF_FRAME":"TEME","OBJECT_ID":"2021-040BJ"},{"TIME_SYSTEM":"UTC","NORAD_CAT_ID":"48485","DECAY_DATE":null,"FILE":"3217982","RCS_SIZE":"LARGE","TLE_LINE2":"2 48485  53.0563  63.1471 0001336  82.2346 277.8795 15.06401206 29251","RA_OF_ASC_NODE":"63.1471","OBJECT_NAME":"STARLINK-2500","APOAPSIS":"548.135","BSTAR":"0.00012023000000","GP_ID":"189977938","INCLINATION":"53.0563","CLASSIFICATION_TYPE":"U","OBJECT_TYPE":"PAYLOAD","REF_FRAME":"TEME","OBJECT_ID":"2021-040BK","MEAN_MOTION_DDOT":"0.0000000000000","PERIAPSIS":"546.285","EPHEMERIS_TYPE":"0","COUNTRY_CODE":"US","SITE":"AFETR","LAUNCH_DATE":"2021-05-09","PERIOD":"95.592","SEMIMAJOR_AXIS":"6925.345","CENTER_NAME":"EARTH","MEAN_ANOMALY":"277.8795","EPOCH":"2021-11-17T16:12:44.553888","REV_AT_EPOCH":"2925","MEAN_MOTION_DOT":"0.00001510","MEAN_ELEMENT_THEORY":"SGP4","ECCENTRICITY":"0.00013360","ELEMENT_SET_NO":"999","TLE_LINE1":"1 48485U 21040BK  21321.67551567  .00001510  00000-0  12023-3 0  9995","MEAN_MOTION":"15.06401206","ARG_OF_PERICENTER":"82.2346"},{"LAUNCH_DATE":"2021-05-09","PERIOD":"95.592","SEMIMAJOR_AXIS":"6925.346","COUNTRY_CODE":"US","SITE":"AFETR","OBJECT_ID":"2021-040BL","REF_FRAME":"TEME","EPHEMERIS_TYPE":"0","PERIAPSIS":"546.255","MEAN_MOTION_DDOT":"0.0000000000000","TLE_LINE1":"1 48486U 21040BL  21321.74555036  .00001589  00000-0  12555-3 0  9995","ELEMENT_SET_NO":"999","ECCENTRICITY":"0.00013800","MEAN_ELEMENT_THEORY":"SGP4","ARG_OF_PERICENTER":"82.6363","MEAN_MOTION":"15.06400886","MEAN_ANOMALY":"277.4783","CENTER_NAME":"EARTH","MEAN_MOTION_DOT":"0.00001589","REV_AT_EPOCH":"2926","EPOCH":"2021-11-17T17:53:35.551104","FILE":"3217982","OBJECT_NAME":"STARLINK-2496","RA_OF_ASC_NODE":"62.8275","TLE_LINE2":"2 48486  53.0566  62.8275 0001380  82.6363 277.4783 15.06400886 29262","RCS_SIZE":"LARGE","NORAD_CAT_ID":"48486","TIME_SYSTEM":"UTC","DECAY_DATE":null,"OBJECT_TYPE":"PAYLOAD","BSTAR":"0.00012555000000","APOAPSIS":"548.167","CLASSIFICATION_TYPE":"U","INCLINATION":"53.0566","GP_ID":"189978528"},{"CLASSIFICATION_TYPE":"U","GP_ID":"189977816","INCLINATION":"53.0574","APOAPSIS":"548.008","BSTAR":"0.00015012000000","OBJECT_TYPE":"PAYLOAD","DECAY_DATE":null,"TIME_SYSTEM":"UTC","NORAD_CAT_ID":"48487","OBJECT_NAME":"STARLINK-2494","RA_OF_ASC_NODE":"62.8253","RCS_SIZE":"LARGE","TLE_LINE2":"2 48487  53.0574  62.8253 0001162  90.2928 269.8194 15.06403262 29271","FILE":"3217982","MEAN_MOTION_DOT":"0.00001956","REV_AT_EPOCH":"2927","EPOCH":"2021-11-17T17:58:53.888448","CENTER_NAME":"EARTH","MEAN_ANOMALY":"269.8194","ARG_OF_PERICENTER":"90.2928","MEAN_MOTION":"15.06403262","ECCENTRICITY":"0.00011620","TLE_LINE1":"1 48487U 21040BM  21321.74923482  .00001956  00000-0  15012-3 0  9999","ELEMENT_SET_NO":"999","MEAN_ELEMENT_THEORY":"SGP4","EPHEMERIS_TYPE":"0","MEAN_MOTION_DDOT":"0.0000000000000","PERIAPSIS":"546.399","OBJECT_ID":"2021-040BM","REF_FRAME":"TEME","SITE":"AFETR","COUNTRY_CODE":"US","PERIOD":"95.592","LAUNCH_DATE":"2021-05-09","SEMIMAJOR_AXIS":"6925.339"},{"RCS_SIZE":"LARGE","TLE_LINE2":"2 48553  53.0562 353.5243 0001567  55.7329 304.3808 15.06399293 28107","OBJECT_NAME":"STARLINK-2063","RA_OF_ASC_NODE":"353.5243","FILE":"3217982","DECAY_DATE":null,"TIME_SYSTEM":"UTC","NORAD_CAT_ID":"48553","OBJECT_TYPE":"PAYLOAD","GP_ID":"189977946","INCLINATION":"53.0562","CLASSIFICATION_TYPE":"U","APOAPSIS":"548.301","BSTAR":"0.00000130530000","COUNTRY_CODE":"US","SITE":"AFETR","SEMIMAJOR_AXIS":"6925.351","LAUNCH_DATE":"2021-05-15","PERIOD":"95.592","MEAN_MOTION_DDOT":"0.0000000000000","PERIAPSIS":"546.131","EPHEMERIS_TYPE":"0","REF_FRAME":"TEME","OBJECT_ID":"2021-041A","MEAN_MOTION":"15.06399293","ARG_OF_PERICENTER":"55.7329","MEAN_ELEMENT_THEORY":"SGP4","ECCENTRICITY":"0.00015670","ELEMENT_SET_NO":"999","TLE_LINE1":"1 48553U 21041A   21321.59351815 -.00000262  00000-0  13053-5 0  9997","EPOCH":"2021-11-17T14:14:39.968160","MEAN_MOTION_DOT":"-0.00000262","REV_AT_EPOCH":"2810","CENTER_NAME":"EARTH","MEAN_ANOMALY":"304.3808"},{"EPHEMERIS_TYPE":"0","MEAN_MOTION_DDOT":"0.0000000000000","PERIAPSIS":"546.124","OBJECT_ID":"2021-041B","REF_FRAME":"TEME","SITE":"AFETR","COUNTRY_CODE":"US","LAUNCH_DATE":"2021-05-15","SEMIMAJOR_AXIS":"6925.358","PERIOD":"95.592","REV_AT_EPOCH":"2806","MEAN_MOTION_DOT":"-0.00000474","EPOCH":"2021-11-17T08:03:07.280352","CENTER_NAME":"EARTH","MEAN_ANOMALY":"306.8018","ARG_OF_PERICENTER":"53.3116","MEAN_MOTION":"15.06396939","ECCENTRICITY":"0.00015870","ELEMENT_SET_NO":"999","TLE_LINE1":"1 48554U 21041B   21321.33550093 -.00000474  00000-0 -12956-4 0  9995","MEAN_ELEMENT_THEORY":"SGP4","DECAY_DATE":null,"TIME_SYSTEM":"UTC","NORAD_CAT_ID":"48554","OBJECT_NAME":"STARLINK-2139","RA_OF_ASC_NODE":"354.6871","RCS_SIZE":"LARGE","TLE_LINE2":"2 48554  53.0557 354.6871 0001587  53.3116 306.8018 15.06396939 28060","FILE":"3217692","CLASSIFICATION_TYPE":"U","INCLINATION":"53.0557","GP_ID":"189948108","APOAPSIS":"548.322","BSTAR":"-0.00001295600000","OBJECT_TYPE":"PAYLOAD"}];
